IRIDIUM 136             
1 42962U 17061H   23258.54036595  .00000142  00000+0  43784-4 0  9991
2 42962  86.3911  85.5355 0002301  92.0493 268.0966 14.34219032310692
